     2.100          NAVIGATION                              RINEX VERSION / TYPE
fic2rin                                 12/03/2016 01:31:55 PGM / RUN BY / DATE
                                                            END OF HEADER
30 16 12  2  7 59 44.0  .158356968313D-03  .795807864051D-12  .000000000000D+00
     .150000000000D+02  .102968750000D+03  .445089968355D-08 -.332115970649D+00
     .539980828762D-05  .235735916067D-02  .832043588161D-05  .515375135040D+04
     .460784000000D+06  .521540641785D-07 -.234459812291D+01 -.130385160446D-07
     .950277302270D+00  .212406250000D+03 -.313701927616D+01 -.805747848346D-08
     .125719522437D-09  .100000000000D+01  .192500000000D+04  .000000000000D+00
     .240000000000D+01  .000000000000D+00  .372529029846D-08  .150000000000D+02
     .453606000000D+06  .400000000000D+01
32 16 12  2  7 59 44.0 -.223223585635D-03 -.161435309565D-10  .000000000000D+00
     .100000000000D+01 -.600000000000D+01  .448732977244D-08 -.311289038667D+01
    -.232830643654D-06  .593816046603D-03  .852346420288D-05  .515366613197D+04
     .460784000000D+06  .484287738800D-07  .282141277784D+01 -.745058059692D-08
     .958957052708D+00  .213312500000D+03 -.261413695202D+01 -.788247119371D-08
    -.464305054455D-09  .100000000000D+01  .192500000000D+04  .000000000000D+00
     .240000000000D+01  .000000000000D+00  .465661287308D-09  .100000000000D+01
     .453606000000D+06  .400000000000D+01
 1 16 12  2  8  0  0.0  .423304736614D-04  .125055521494D-11  .000000000000D+00
     .510000000000D+02 -.377812500000D+02  .431196532495D-08  .319568095111D+00
    -.189244747162D-05  .601726153400D-02  .102296471596D-04  .515370123482D+04
     .460800000000D+06  .428408384323D-07  .739131692396D+00  .782310962677D-07
     .965947090339D+00  .182781250000D+03  .562262867545D+00 -.784425531615D-08
     .273582824394D-09  .100000000000D+01  .192500000000D+04  .000000000000D+00
     .240000000000D+01  .000000000000D+00  .512227416039D-08  .510000000000D+02
     .453606000000D+06  .400000000000D+01
 3 16 12  2  8  0  0.0 -.100976787508D-03 -.170530256582D-11  .000000000000D+00
     .800000000000D+01  .136562500000D+02  .488698927701D-08 -.108301701015D+01
     .599771738052D-06  .385154038668D-03  .570528209209D-05  .515356158257D+04
     .460800000000D+06 -.372529029846D-08  .178124462506D+01 -.111758708954D-07
     .959006970398D+00  .269343750000D+03  .887459640908D+00 -.813712465819D-08
     .140362989539D-09  .100000000000D+01  .192500000000D+04  .000000000000D+00
     .240000000000D+01  .000000000000D+00  .186264514923D-08  .800000000000D+01
     .453606000000D+06  .400000000000D+01
 4 16 12  2  8  0  0.0  .207740813494D-04  .306954461848D-11  .000000000000D+00
     .710000000000D+02  .793750000000D+01  .420338937375D-08 -.243092362115D+01
     .564381480217D-06  .830124632921D-02  .931136310101D-05  .515374247360D+04
     .460800000000D+06  .223517417908D-07  .294093952082D+01  .180676579475D-06
     .966245373484D+00  .200843750000D+03 -.942211159654D+00 -.767281960373D-08
    -.476091259683D-09  .100000000000D+01  .192500000000D+04  .000000000000D+00
     .240000000000D+01  .630000000000D+02 -.419095158577D-08  .710000000000D+02
     .453606000000D+06  .400000000000D+01
 5 16 12  2  8  0  0.0 -.745793804526D-04  .227373675443D-11  .000000000000D+00
     .250000000000D+02  .147187500000D+02  .520735976458D-08 -.302994374056D+01
     .728294253349D-06  .489395530894D-02  .537745654583D-05  .515363336563D+04
     .460800000000D+06 -.745058059692D-08  .176679902732D+01 -.353902578354D-07
     .946015402047D+00  .269437500000D+03  .561599995957D+00 -.826177270742D-08
     .163578242262D-09  .100000000000D+01  .192500000000D+04  .000000000000D+00
     .240000000000D+01  .000000000000D+00 -.107102096081D-07  .250000000000D+02
     .453606000000D+06  .400000000000D+01
 7 16 12  2  8  0  0.0  .405832193792D-03 -.341060513165D-11  .000000000000D+00
     .840000000000D+02  .100000000000D+03  .422767609968D-08 -.321037669468D+00
     .535137951374D-05  .100415076595D-01  .892020761967D-05  .515362619972D+04
     .460800000000D+06  .987201929092D-07 -.238605220346D+01  .134110450745D-06
     .964538213917D+00  .210593750000D+03 -.261339163183D+01 -.802354849872D-08
     .103575742917D-09  .100000000000D+01  .192500000000D+04  .000000000000D+00
     .240000000000D+01  .000000000000D+00 -.111758708954D-07  .840000000000D+02
     .453606000000D+06  .400000000000D+01
 8 16 12  2  8  0  0.0 -.409586355090D-04 -.136424205266D-11  .000000000000D+00
     .131000000000D+03 -.114625000000D+03  .450768776329D-08 -.308561446194D+01
    -.583566725254D-05  .214613508433D-02  .515766441822D-05  .515355263519D+04
     .460800000000D+06  .372529029846D-07 -.322174116897D+00  .540167093277D-07
     .965420574419D+00  .282187500000D+03 -.989411456616D+00 -.809033699501D-08
    -.185007706314D-09  .100000000000D+01  .192500000000D+04  .000000000000D+00
     .485000000000D+01  .000000000000D+00  .512227416039D-08  .131000000000D+03
     .453606000000D+06  .400000000000D+01
 9 16 12  2  8  0  0.0  .255698803812D-03  .738964445191D-11  .000000000000D+00
     .190000000000D+02 -.150625000000D+02  .461304929488D-08  .267546167915D+01
    -.696629285812D-06  .763840274885D-03  .850297510624D-05  .515373459435D+04
     .460800000000D+06 -.447034835815D-07  .281909634947D+01  .279396772385D-07
     .954409383142D+00  .212093750000D+03  .174626313631D+01 -.796354599937D-08
    -.487520307178D-09  .100000000000D+01  .192500000000D+04  .000000000000D+00
     .240000000000D+01  .000000000000D+00  .139698386192D-08  .190000000000D+02
     .453606000000D+06  .400000000000D+01
10 16 12  2  8  0  0.0 -.115697737783D-03 -.568434188608D-12  .000000000000D+00
     .450000000000D+02  .117187500000D+02  .479448542385D-08 -.170503325819D+01
     .609084963799D-06  .195403280668D-02  .588782131672D-05  .515366660690D+04
     .460800000000D+06 -.614672899246D-07  .177739966381D+01 -.465661287308D-07
     .959209482148D+00  .266625000000D+03 -.295278670833D+01 -.801176229349D-08
     .190007914592D-09  .100000000000D+01  .192500000000D+04  .000000000000D+00
     .240000000000D+01  .000000000000D+00  .232830643654D-08  .450000000000D+02
     .453606000000D+06  .400000000000D+01
11 16 12  2  8  0  0.0 -.672814901918D-03 -.795807864051D-12  .000000000000D+00
     .760000000000D+02 -.804062500000D+02  .590560313493D-08 -.250424117661D+00
    -.412017107010D-05  .167111282935D-01  .968761742115D-05  .515369066429D+04
     .460800000000D+06 -.232830643654D-06  .349027940015D+00  .502914190292D-07
     .899085270945D+00  .161937500000D+03  .160320689502D+01 -.887608401024D-08
     .159649507186D-09  .100000000000D+01  .192500000000D+04  .000000000000D+00
     .485000000000D+01  .000000000000D+00 -.121071934700D-07  .760000000000D+02
     .453606000000D+06  .400000000000D+01
12 16 12  2  8  0  0.0  .389480032027D-03  .000000000000D+00  .000000000000D+00
     .780000000000D+02  .267500000000D+02  .425053419467D-08 -.908628815992D+00
     .156648457050D-05  .612595211715D-02  .131130218506D-05  .515361969566D+04
     .460800000000D+06  .102445483208D-06 -.130534124228D+01  .540167093277D-07
     .989685547484D+00  .371656250000D+03  .780119246915D+00 -.822391398760D-08
     .165006873199D-09  .100000000000D+01  .192500000000D+04  .000000000000D+00
     .240000000000D+01  .000000000000D+00 -.125728547573D-07  .780000000000D+02
     .453606000000D+06  .400000000000D+01
13 16 12  2  8  0  0.0 -.579045154154D-04 -.204636307899D-11  .000000000000D+00
     .250000000000D+02  .600000000000D+01  .419946063868D-08  .715178631021D+00
     .266358256340D-06  .403801049106D-02  .932067632675D-05  .515368989944D+04
     .460800000000D+06  .372529029846D-08  .294259898925D+01 -.335276126862D-07
     .970725055395D+00  .204781250000D+03  .188241243079D+01 -.781889711702D-08
    -.484663045304D-09  .100000000000D+01  .192500000000D+04  .000000000000D+00
     .240000000000D+01  .000000000000D+00 -.111758708954D-07  .250000000000D+02
     .453606000000D+06  .400000000000D+01
14 16 12  2  8  0  0.0 -.476590357721D-04 -.170530256582D-11  .000000000000D+00
     .600000000000D+02 -.356250000000D+01  .435982446133D-08  .204578842133D+01
    -.212341547012D-06  .865354773123D-02  .908784568310D-05  .515360371780D+04
     .460800000000D+06  .242143869400D-07  .290434656489D+01 -.247731804848D-06
     .963201206271D+00  .203406250000D+03 -.194666946164D+01 -.777103798064D-08
    -.467519474063D-09  .100000000000D+01  .192500000000D+04  .000000000000D+00
     .240000000000D+01  .000000000000D+00 -.931322574615D-08  .600000000000D+02
     .453606000000D+06  .400000000000D+01
15 16 12  2  8  0  0.0 -.336175318807D-03 -.125055521494D-11  .000000000000D+00
     .240000000000D+02 -.100625000000D+02  .527164815673D-08  .168089002478D+01
    -.476837158203D-06  .887946714647D-02  .836886465549D-05  .515370821381D+04
     .460800000000D+06 -.122934579849D-06  .276190512370D+01  .894069671631D-07
     .930026905571D+00  .204625000000D+03  .540399757270D+00 -.833177562333D-08
    -.585024368613D-09  .100000000000D+01  .192500000000D+04  .000000000000D+00
     .240000000000D+01  .000000000000D+00 -.107102096081D-07  .240000000000D+02
     .453606000000D+06  .400000000000D+01
16 16 12  2  8  0  0.0  .178273767233D-04  .147792889038D-11  .000000000000D+00
     .410000000000D+02  .340000000000D+02  .415374444870D-08 -.285127029362D+01
     .168569386005D-05  .882296485361D-02  .183843076229D-05  .515360573196D+04
     .460800000000D+06 -.150874257088D-06 -.128650957037D+01 -.137835741043D-06
     .990180146920D+00  .362718750000D+03  .381361162297D+00 -.801926260590D-08
     .168578450541D-09  .100000000000D+01  .192500000000D+04  .000000000000D+00
     .240000000000D+01  .000000000000D+00 -.102445483208D-07  .410000000000D+02
     .453606000000D+06  .400000000000D+01
